{
  "type": "FeatureCollection",
  "name": "RoadCorridors",
  "features": [
    {
      "type": "Feature",
      "geometry": {
        "type": "LineString",
        "coordinates": [
          [
            85.832,
            19.825
          ],
          [
            85.824,
            19.814
          ],
          [
            85.84,
            19.88
          ],
          [
            85.86,
            19.95
          ],
          [
            85.85,
            20.02
          ]
        ]
      },
      "properties": {
        "id": "ROAD_NH316_PURI",
        "name": "NH-316 Puri Arterial Corridor",
        "type": "HIGHWAY",
        "elevation_m": 2.1,
        "max_wading_depth_m": 0.35,
        "coordinates": [
          [
            85.832,
            19.825
          ],
          [
            85.824,
            19.814
          ],
          [
            85.84,
            19.88
          ],
          [
            85.86,
            19.95
          ],
          [
            85.85,
            20.02
          ]
        ],
        "connects": [
          "HOSP_PURI_DHH",
          "SUB_PURI_132",
          "FUEL_PURI_DEPOT"
        ]
      }
    },
    {
      "type": "Feature",
      "geometry": {
        "type": "LineString",
        "coordinates": [
          [
            85.832,
            19.825
          ],
          [
            85.95,
            19.84
          ],
          [
            86.05,
            19.86
          ],
          [
            86.115,
            19.872
          ]
        ]
      },
      "properties": {
        "id": "ROAD_SH13_MARINEDRIVE",
        "name": "SH-13 Puri-Konark Marine Drive",
        "type": "COASTAL_HIGHWAY",
        "elevation_m": 0.9,
        "max_wading_depth_m": 0.3,
        "coordinates": [
          [
            85.832,
            19.825
          ],
          [
            85.95,
            19.84
          ],
          [
            86.05,
            19.86
          ],
          [
            86.115,
            19.872
          ]
        ],
        "connects": [
          "SUB_PURI_132",
          "SHELTER_CHANDRABHAGA"
        ]
      }
    },
    {
      "type": "Feature",
      "geometry": {
        "type": "LineString",
        "coordinates": [
          [
            86.012,
            19.998
          ],
          [
            86.009,
            20.002
          ],
          [
            85.995,
            20.035
          ],
          [
            85.985,
            20.065
          ],
          [
            85.981,
            20.071
          ]
        ]
      },
      "properties": {
        "id": "ROAD_GOP_NIMAPADA_LINK",
        "name": "Gop-Nimapada Inland Bypass",
        "type": "SECONDARY_ROAD",
        "elevation_m": 3.2,
        "max_wading_depth_m": 0.4,
        "coordinates": [
          [
            86.012,
            19.998
          ],
          [
            86.009,
            20.002
          ],
          [
            85.995,
            20.035
          ],
          [
            85.985,
            20.065
          ],
          [
            85.981,
            20.071
          ]
        ],
        "connects": [
          "SUB_GOP_33",
          "HOSP_GOP_CHC",
          "SUB_NIMAPADA_33",
          "HOSP_NIMAPADA_SDH"
        ]
      }
    },
    {
      "type": "Feature",
      "geometry": {
        "type": "LineString",
        "coordinates": [
          [
            86.535,
            20.315
          ],
          [
            86.531,
            20.318
          ],
          [
            86.62,
            20.301
          ],
          [
            86.665,
            20.288
          ],
          [
            86.672,
            20.295
          ]
        ]
      },
      "properties": {
        "id": "ROAD_NH53_PARADIP",
        "name": "NH-53 Cuttack-Paradip Port Expressway",
        "type": "EXPRESSWAY",
        "elevation_m": 2.4,
        "max_wading_depth_m": 0.35,
        "coordinates": [
          [
            86.535,
            20.315
          ],
          [
            86.531,
            20.318
          ],
          [
            86.62,
            20.301
          ],
          [
            86.665,
            20.288
          ],
          [
            86.672,
            20.295
          ]
        ],
        "connects": [
          "SUB_KUJANG_33",
          "HOSP_KUJANG_CHC",
          "WATER_PARADIP_INTAKE",
          "HOSP_PARADIP_PORT",
          "SUB_PARADIP_132"
        ]
      }
    },
    {
      "type": "Feature",
      "geometry": {
        "type": "LineString",
        "coordinates": [
          [
            86.485,
            20.198
          ],
          [
            86.56,
            20.24
          ],
          [
            86.645,
            20.278
          ]
        ]
      },
      "properties": {
        "id": "ROAD_ERSAMA_PARADIP",
        "name": "Ersama-Paradip Coastal Link",
        "type": "RURAL_CORRIDOR",
        "elevation_m": 1.1,
        "max_wading_depth_m": 0.25,
        "coordinates": [
          [
            86.485,
            20.198
          ],
          [
            86.56,
            20.24
          ],
          [
            86.645,
            20.278
          ]
        ],
        "connects": [
          "SHELTER_ERSAMA_MCS",
          "SHELTER_PARADIP_LOCK"
        ]
      }
    }
  ]
}